{"type": "FeatureCollection", "features": [ {"type": "Feature", "properties": {"norad_id": 40664, "name": "SKY MEXICO-1", "group": "intelsat", "lat": -0.03571283949850692, "lon": -115.89457004171003, "alt_km": 35777.681595218855, "timestamp": "2025-12-15T15:53:19.546223+00:00", "meta": {"OBJECT_NAME": "SKY MEXICO-1", "OBJECT_ID": "2015-026B", "EPOCH": "2025-12-14T21:36:14.164416", "MEAN_MOTION": 1.00271952, "ECCENTRICITY": 0.0002455, "INCLINATION": 0.0232, "RA_OF_ASC_NODE": 294.7871, "ARG_OF_PERICENTER": 345.2968, "MEAN_ANOMALY": 49.0256, "EPHEMERIS_TYPE": 0, "CLASSIFICATION_TYPE": "U", "NORAD_CAT_ID": 40664, "ELEMENT_SET_NO": 999, "REV_AT_EPOCH": 3860, "BSTAR": 0, "MEAN_MOTION_DOT": -2.15e-06, "MEAN_MOTION_DDOT": 0}, "tle": {"line1": "1 40664U 15026B   25348.90016394 -.00000215  00000+0  00000+0 0  9995", "line2": "2 40664   0.0232 294.7871 0002455 345.2968  49.0256  1.00271952 38600"}}, "geometry": {"type": "Point", "coordinates": [-115.89457004171003, -0.03571283949850692]}}, {"type": "Feature", "properties": {"norad_id": 40874, "name": "INTELSAT 34 (IS-34)", "group": "intelsat", "lat": -0.025595808002960914, "lon": -92.60896975818116, "alt_km": 35787.28433160257, "timestamp": "2025-12-15T15:53:19.546234+00:00", "meta": {"OBJECT_NAME": "INTELSAT 34 (IS-34)", "OBJECT_ID": "2015-039A", "EPOCH": "2025-12-14T18:17:25.706112", "MEAN_MOTION": 1.00271143, "ECCENTRICITY": 7.723e-05, "INCLINATION": 0.0116, "RA_OF_ASC_NODE": 312.1998, "ARG_OF_PERICENTER": 208.7792, "MEAN_ANOMALY": 141.5559, "EPHEMERIS_TYPE": 0, "CLASSIFICATION_TYPE": "U", "NORAD_CAT_ID": 40874, "ELEMENT_SET_NO": 999, "REV_AT_EPOCH": 3777, "BSTAR": 0, "MEAN_MOTION_DOT": -2.66e-06, "MEAN_MOTION_DDOT": 0}, "tle": {"line1": "1 40874U 15039A   25348.76210308 -.00000266  00000+0  00000+0 0  9993", "line2": "2 40874   0.0116 312.1998 0000772 208.7792 141.5559  1.00271143 37770"}}, "geometry": {"type": "Point", "coordinates": [-92.60896975818116, -0.025595808002960914]}}, {"type": "Feature", "properties": {"norad_id": 41581, "name": "INTELSAT 31 (IS-31)", "group": "intelsat", "lat": -0.027170155784168443, "lon": -132.1615513940727, "alt_km": 35778.18146423816, "timestamp": "2025-12-15T15:53:19.546244+00:00", "meta": {"OBJECT_NAME": "INTELSAT 31 (IS-31)", "OBJECT_ID": "2016-035A", "EPOCH": "2025-12-14T21:31:37.107264", "MEAN_MOTION": 1.00271462, "ECCENTRICITY": 0.00020191, "INCLINATION": 0.0208, "RA_OF_ASC_NODE": 270.1312, "ARG_OF_PERICENTER": 298.0083, "MEAN_ANOMALY": 103.5224, "EPHEMERIS_TYPE": 0, "CLASSIFICATION_TYPE": "U", "NORAD_CAT_ID": 41581, "ELEMENT_SET_NO": 999, "REV_AT_EPOCH": 3483, "BSTAR": 0, "MEAN_MOTION_DOT": -1.31e-06, "MEAN_MOTION_DDOT": 0}, "tle": {"line1": "1 41581U 16035A   25348.89695726 -.00000131  00000+0  00000+0 0  9992", "line2": "2 41581   0.0208 270.1312 0002019 298.0083 103.5224  1.00271462 34837"}}, "geometry": {"type": "Point", "coordinates": [-132.1615513940727, -0.027170155784168443]}}, {"type": "Feature", "properties": {"norad_id": 41747, "name": "INTELSAT 36 (IS-36)", "group": "intelsat", "lat": 0.0235063072079072, "lon": 31.38851230345914, "alt_km": 35783.198371293016, "timestamp": "2025-12-15T15:53:19.546254+00:00", "meta": {"OBJECT_NAME": "INTELSAT 36 (IS-36)", "OBJECT_ID": "2016-053A", "EPOCH": "2025-12-14T20:35:34.973088", "MEAN_MOTION": 1.00272499, "ECCENTRICITY": 0.0001425, "INCLINATION": 0.0106, "RA_OF_ASC_NODE": 352.6059, "ARG_OF_PERICENTER": 335.2415, "MEAN_ANOMALY": 133.3072, "EPHEMERIS_TYPE": 0, "CLASSIFICATION_TYPE": "U", "NORAD_CAT_ID": 41747, "ELEMENT_SET_NO": 999, "REV_AT_EPOCH": 3410, "BSTAR": 0, "MEAN_MOTION_DOT": -5e-08, "MEAN_MOTION_DDOT": 0}, "tle": {"line1": "1 41747U 16053A   25348.85804367 -.00000005  00000+0  00000+0 0  9995", "line2": "2 41747   0.0106 352.6059 0001425 335.2415 133.3072  1.00272499 34108"}}, "geometry": {"type": "Point", "coordinates": [31.38851230345914, 0.0235063072079072]}}, {"type": "Feature", "properties": {"norad_id": 41945, "name": "INTELSAT 32E (IS-32E)", "group": "intelsat", "lat": -0.026028504589875566, "lon": -80.30089288258729, "alt_km": 35786.8884744075, "timestamp": "2025-12-15T15:53:19.546265+00:00", "meta": {"OBJECT_NAME": "INTELSAT 32E (IS-32E)", "OBJECT_ID": "2017-007B", "EPOCH": "2025-12-14T18:20:55.371264", "MEAN_MOTION": 1.0027145, "ECCENTRICITY": 2.963e-05, "INCLINATION": 0.0333, "RA_OF_ASC_NODE": 81.0749, "ARG_OF_PERICENTER": 317.8628, "MEAN_ANOMALY": 276.7915, "EPHEMERIS_TYPE": 0, "CLASSIFICATION_TYPE": "U", "NORAD_CAT_ID": 41945, "ELEMENT_SET_NO": 999, "REV_AT_EPOCH": 3237, "BSTAR": 0, "MEAN_MOTION_DOT": -2.5e-06, "MEAN_MOTION_DDOT": 0}, "tle": {"line1": "1 41945U 17007B   25348.76452976 -.00000250  00000+0  00000+0 0  9992", "line2": "2 41945   0.0333  81.0749 0000296 317.8628 276.7915  1.00271450 32377"}}, "geometry": {"type": "Point", "coordinates": [-80.30089288258729, -0.026028504589875566]}}, {"type": "Feature", "properties": {"norad_id": 42818, "name": "INTELSAT 35E (IS-35E)", "group": "intelsat", "lat": -0.013628414843693386, "lon": -71.59731572194384, "alt_km": 35778.395643571486, "timestamp": "2025-12-15T15:53:19.546276+00:00", "meta": {"OBJECT_NAME": "INTELSAT 35E (IS-35E)", "OBJECT_ID": "2017-041A", "EPOCH": "2025-12-14T21:48:50.457312", "MEAN_MOTION": 1.00272974, "ECCENTRICITY": 0.00018627, "INCLINATION": 0.0011, "RA_OF_ASC_NODE": 32.7429, "ARG_OF_PERICENTER": 235.979, "MEAN_ANOMALY": 107.8181, "EPHEMERIS_TYPE": 0, "CLASSIFICATION_TYPE": "U", "NORAD_CAT_ID": 42818, "ELEMENT_SET_NO": 999, "REV_AT_EPOCH": 3096, "BSTAR": 0, "MEAN_MOTION_DOT": -2.18e-06, "MEAN_MOTION_DDOT": 0}, "tle": {"line1": "1 42818U 17041A   25348.90891733 -.00000218  00000+0  00000+0 0  9998", "line2": "2 42818   0.0011  32.7429 0001862 235.9790 107.8181  1.00272974 30962"}}, "geometry": {"type": "Point", "coordinates": [-71.59731572194384, -0.013628414843693386]}}, {"type": "Feature", "properties": {"norad_id": 42950, "name": "INTELSAT 37E (IS-37E)", "group": "intelsat", "lat": -0.029739134765522333, "lon": -55.08252702185923, "alt_km": 35777.36622724582, "timestamp": "2025-12-15T15:53:19.546286+00:00", "meta": {"OBJECT_NAME": "INTELSAT 37E (IS-37E)", "OBJECT_ID": "2017-059A", "EPOCH": "2025-12-14T20:10:52.339584", "MEAN_MOTION": 1.00272065, "ECCENTRICITY": 0.00030412, "INCLINATION": 0.0189, "RA_OF_ASC_NODE": 5.1996, "ARG_OF_PERICENTER": 251.968, "MEAN_ANOMALY": 111.3115, "EPHEMERIS_TYPE": 0, "CLASSIFICATION_TYPE": "U", "NORAD_CAT_ID": 42950, "ELEMENT_SET_NO": 999, "REV_AT_EPOCH": 3021, "BSTAR": 0, "MEAN_MOTION_DOT": -1.21e-06, "MEAN_MOTION_DDOT": 0}, "tle": {"line1": "1 42950U 17059A   25348.84088356 -.00000121  00000+0  00000+0 0  9999", "line2": "2 42950   0.0189   5.1996 0003041 251.9680 111.3115  1.00272065 30211"}}, "geometry": {"type": "Point", "coordinates": [-55.08252702185923, -0.029739134765522333]}}, {"type": "Feature", "properties": {"norad_id": 43632, "name": "AZERSPACE 2 (IS-38)", "group": "intelsat", "lat": 0.023163006089203176, "lon": 7.997293387105756, "alt_km": 35787.43748455334, "timestamp": "2025-12-15T15:53:19.546296+00:00", "meta": {"OBJECT_NAME": "AZERSPACE 2 (IS-38)", "OBJECT_ID": "2018-074A", "EPOCH": "2025-12-14T21:45:38.733984", "MEAN_MOTION": 1.00270394, "ECCENTRICITY": 0.00011651, "INCLINATION": 0.0258, "RA_OF_ASC_NODE": 341.5111, "ARG_OF_PERICENTER": 284.1193, "MEAN_ANOMALY": 189.7037, "EPHEMERIS_TYPE": 0, "CLASSIFICATION_TYPE": "U", "NORAD_CAT_ID": 43632, "ELEMENT_SET_NO": 999, "REV_AT_EPOCH": 2660, "BSTAR": 0, "MEAN_MOTION_DOT": 0, "MEAN_MOTION_DDOT": 0}, "tle": {"line1": "1 43632U 18074A   25348.90669831  .00000000  00000+0  00000+0 0  9990", "line2": "2 43632   0.0258 341.5111 0001165 284.1193 189.7037  1.00270394 26607"}}, "geometry": {"type": "Point", "coordinates": [7.997293387105756, 0.023163006089203176]}}, {"type": "Feature", "properties": {"norad_id": 43633, "name": "HORIZONS-3E", "group": "intelsat", "lat": -0.02172235088996382, "lon": 131.85980827896555, "alt_km": 35789.97706107717, "timestamp": "2025-12-15T15:53:19.546307+00:00", "meta": {"OBJECT_NAME": "HORIZONS-3E", "OBJECT_ID": "2018-074B", "EPOCH": "2025-12-14T19:21:34.561728", "MEAN_MOTION": 1.00269316, "ECCENTRICITY": 8.754e-05, "INCLINATION": 0.0451, "RA_OF_ASC_NODE": 191.6793, "ARG_OF_PERICENTER": 91.0112, "MEAN_ANOMALY": 260.4121, "EPHEMERIS_TYPE": 0, "CLASSIFICATION_TYPE": "U", "NORAD_CAT_ID": 43633, "ELEMENT_SET_NO": 999, "REV_AT_EPOCH": 2649, "BSTAR": 0, "MEAN_MOTION_DOT": -1.1e-07, "MEAN_MOTION_DDOT": 0}, "tle": {"line1": "1 43633U 18074B   25348.80665002 -.00000011  00000+0  00000+0 0  9999", "line2": "2 43633   0.0451 191.6793 0000875  91.0112 260.4121  1.00269316 26496"}}, "geometry": {"type": "Point", "coordinates": [131.85980827896555, -0.02172235088996382]}}, {"type": "Feature", "properties": {"norad_id": 44333, "name": "AT&T T-16", "group": "intelsat", "lat": -0.007504798300838041, "lon": -137.9654393325168, "alt_km": 35784.99870578718, "timestamp": "2025-12-15T15:53:19.546317+00:00", "meta": {"OBJECT_NAME": "AT&T T-16", "OBJECT_ID": "2019-034A", "EPOCH": "2025-12-14T21:29:59.762112", "MEAN_MOTION": 1.00270833, "ECCENTRICITY": 9.964e-05, "INCLINATION": 0.0252, "RA_OF_ASC_NODE": 69.3394, "ARG_OF_PERICENTER": 81.8643, "MEAN_ANOMALY": 154.2461, "EPHEMERIS_TYPE": 0, "CLASSIFICATION_TYPE": "U", "NORAD_CAT_ID": 44333, "ELEMENT_SET_NO": 999, "REV_AT_EPOCH": 2378, "BSTAR": 0, "MEAN_MOTION_DOT": -9.5e-07, "MEAN_MOTION_DDOT": 0}, "tle": {"line1": "1 44333U 19034A   25348.89583058 -.00000095  00000+0  00000+0 0  9995", "line2": "2 44333   0.0252  69.3394 0000996  81.8643 154.2461  1.00270833 23783"}}, "geometry": {"type": "Point", "coordinates": [-137.9654393325168, -0.007504798300838041]}}]}